NORAD_CAT_ID,OBJECT_NAME,OBJECT_TYPE,EPOCH,MEAN_MOTION,ECCENTRICITY,INCLINATION,RA_OF_ASC_NODE,ARG_OF_PERICENTER,MEAN_ANOMALY,BSTAR,MEAN_MOTION_DOT,MEAN_MOTION_DDOT,TLE_LINE0,TLE_LINE1,TLE_LINE2,SEMIMAJOR_AXIS,PERIOD,APOGEE,PERIGEE,DECAYED
52675.0,STARLINK-3934,PAYLOAD,2023-10-22 16:42:15,15.08832649,0.0001472,53.2159,85.1866,79.9791,280.1367,-1.575e-05,-5.39e-06,0.0,0 STARLINK-3934,1 52675U 22053V   23295.69600794 -.00000539  00000-0 -15750-4 0  9990,2 52675  53.2159  85.1866 0001472  79.9791 280.1367 15.08832649 79988,6917.903,95.438,540.786,538.75,0.0
52675.0,STARLINK-3934,PAYLOAD,2023-10-24 10:02:16,15.08834006,0.0001474,53.2167,77.4538,77.5457,282.57,0.0003481,5.255e-05,0.0,0 STARLINK-3934,1 52675U 22053V   23297.41825106  .00005255  00000-0  34810-3 0  9993,2 52675  53.2167  77.4538 0001474  77.5457 282.5700 15.08834006 79810,6917.899,95.438,540.783,538.744,0.0
52675.0,STARLINK-3934,PAYLOAD,2023-10-25 14:39:12,15.08842865,0.0001994,53.221,72.1023,95.9549,264.167,0.00023095,3.39e-05,0.0,0 STARLINK-3934,1 52675U 22053V   23298.61056183  .00003390  00000-0  23095-3 0  9998,2 52675  53.2210  72.1023 0001994  95.9549 264.1670 15.08842865 79996,6917.872,95.437,541.116,538.357,0.0
52675.0,STARLINK-3934,PAYLOAD,2023-10-26 01:46:55,15.08838207,0.0001157,53.2203,70.0209,75.2873,284.8247,5.7736e-05,6.31e-06,0.0,0 STARLINK-3934,1 52675U 22053V   23299.07425281  .00000631  00000-0  57736-4 0  9993,2 52675  53.2203  70.0209 0001157  75.2873 284.8247 15.08838207 80067,6917.886,95.438,540.551,538.95,0.0
52675.0,STARLINK-3934,PAYLOAD,2023-10-26 12:54:37,15.08839258,0.0001451,53.2206,67.9394,82.1765,277.9391,5.3492e-05,5.63e-06,0.0,0 STARLINK-3934,1 52675U 22053V   23299.53793329  .00000563  00000-0  53492-4 0  9994,2 52675  53.2206  67.9394 0001451  82.1765 277.9391 15.08839258 80569,6917.883,95.438,540.751,538.744,0.0
52675.0,STARLINK-3934,PAYLOAD,2023-10-26 16:05:23,15.08846046,0.0001554,53.2196,67.3441,81.3281,278.7888,0.00010698,1.415e-05,0.0,0 STARLINK-3934,1 52675U 22053V   23299.67040759  .00001415  00000-0  10698-3 0  9998,2 52675  53.2196  67.3441 0001554  81.3281 278.7888 15.08846046 80150,6917.862,95.437,540.802,538.652,0.0
52675.0,STARLINK-3934,PAYLOAD,2023-10-27 07:59:14,15.08844734,0.000151,53.2196,64.3722,89.3666,270.7499,0.00013941,1.932e-05,0.0,0 STARLINK-3934,1 52675U 22053V   23300.33280780  .00001932  00000-0  13941-3 0  9992,2 52675  53.2196  64.3722 0001510  89.3666 270.7499 15.08844734 80686,6917.866,95.437,540.776,538.686,0.0
52675.0,STARLINK-3934,PAYLOAD,2023-10-27 17:31:33,15.08851414,0.0001914,53.219,62.5875,89.0865,271.0347,0.0002113,3.077e-05,0.0,0 STARLINK-3934,1 52675U 22053V   23300.73024337  .00003077  00000-0  21130-3 0  9991,2 52675  53.2190  62.5875 0001914  89.0865 271.0347 15.08851414 80314,6917.846,95.437,541.035,538.386,0.0
52675.0,STARLINK-3934,PAYLOAD,2023-10-28 01:28:29,15.08832596,0.0002303,53.2195,61.0999,78.8079,281.3172,-4.3388e-05,-9.79e-06,0.0,0 STARLINK-3934,1 52675U 22053V   23301.06145472 -.00000979  00000-0 -43388-4 0  9992,2 52675  53.2195  61.0999 0002303  78.8079 281.3172 15.08832596 80361,6917.903,95.438,541.361,538.175,0.0
52675.0,STARLINK-3934,PAYLOAD,2023-10-28 14:11:35,15.088302,0.0001369,53.2185,58.7209,83.6106,276.5042,-4.2807e-06,-3.56e-06,0.0,0 STARLINK-3934,1 52675U 22053V   23301.59138078 -.00000356  00000-0 -42807-5 0  9999,2 52675  53.2185  58.7209 0001369  83.6106 276.5042 15.08830200 80871,6917.91,95.438,540.722,538.828,0.0
52675.0,STARLINK-3934,PAYLOAD,2023-10-29 01:19:16,15.0884751,0.0001395,53.218,56.6403,84.4235,275.6916,8.8768e-05,1.125e-05,0.0,0 STARLINK-3934,1 52675U 22053V   23302.05504806  .00001125  00000-0  88768-4 0  9995,2 52675  53.2180  56.6403 0001395  84.4235 275.6916 15.08847510 80513,6917.857,95.437,540.687,538.757,0.0
52675.0,STARLINK-3934,PAYLOAD,2023-10-29 14:02:20,15.08862376,0.0001461,53.2173,54.2596,84.6673,275.4486,0.00051178,7.871e-05,0.0,0 STARLINK-3934,1 52675U 22053V   23302.58496259  .00007871  00000-0  51178-3 0  9993,2 52675  53.2173  54.2596 0001461  84.6673 275.4486 15.08862376 81028,6917.812,95.436,540.688,538.666,0.0
52675.0,STARLINK-3934,PAYLOAD,2023-10-30 12:17:45,15.08838032,0.0001357,53.2178,50.0968,75.0546,285.0596,0.00010115,1.322e-05,0.0,0 STARLINK-3934,1 52675U 22053V   23303.51233184  .00001322  00000-0  10115-3 0  9994,2 52675  53.2178  50.0968 0001357  75.0546 285.0596 15.08838032 80735,6917.886,95.438,540.69,538.813,0.0
52675.0,STARLINK-3934,PAYLOAD,2023-10-30 18:39:17,15.08844789,0.0001457,53.2189,48.9058,87.9171,272.1988,0.00015184,2.13e-05,0.0,0 STARLINK-3934,1 52675U 22053V   23303.77728741  .00002130  00000-0  15184-3 0  9999,2 52675  53.2189  48.9058 0001457  87.9171 272.1988 15.08844789 81201,6917.866,95.437,540.739,538.723,0.0
52675.0,STARLINK-3934,PAYLOAD,2023-10-31 13:43:56,15.08837845,0.0001432,53.217,45.3413,86.9897,273.1259,0.00012781,1.747e-05,0.0,0 STARLINK-3934,1 52675U 22053V   23304.57217668  .00001747  00000-0  12781-3 0  9992,2 52675  53.2170  45.3413 0001432  86.9897 273.1259 15.08837845 80895,6917.887,95.438,540.743,538.761,0.0
52675.0,STARLINK-3934,PAYLOAD,2023-10-31 16:54:42,15.08837004,0.0001401,53.2177,44.7451,85.9363,274.1789,0.00062321,9.644e-05,0.0,0 STARLINK-3934,1 52675U 22053V   23304.70465737  .00009644  00000-0  62321-3 0  9998,2 52675  53.2177  44.7451 0001401  85.9363 274.1789 15.08837004 81347,6917.89,95.438,540.724,538.785,0.0
52675.0,STARLINK-3934,PAYLOAD,2023-11-01 13:34:43,15.08850668,0.0001476,53.2184,40.8816,81.9247,278.1913,0.0010106,0.00015837,0.0,0 STARLINK-3934,1 52675U 22053V   23305.56577807  .00015837  00000-0  10106-2 0  9999,2 52675  53.2184  40.8816 0001476  81.9247 278.1913 15.08850668 81474,6917.848,95.437,540.734,538.692,0.0
52675.0,STARLINK-3934,PAYLOAD,2023-11-02 11:50:06,15.08848674,0.0001386,53.2176,36.7165,83.2141,276.9008,0.00024609,3.632e-05,0.0,0 STARLINK-3934,1 52675U 22053V   23306.49313559  .00003632  00000-0  24609-3 0  9998,2 52675  53.2176  36.7165 0001386  83.2141 276.9008 15.08848674 81187,6917.854,95.437,540.678,538.76,0.0
52675.0,STARLINK-3934,PAYLOAD,2023-11-02 13:25:30,15.08846155,0.0001438,53.2174,36.4189,80.3254,279.79,0.00019116,2.756e-05,0.0,0 STARLINK-3934,1 52675U 22053V   23306.55937652  .00002756  00000-0  19116-3 0  9994,2 52675  53.2174  36.4189 0001438  80.3254 279.7900 15.08846155 81622,6917.862,95.437,540.721,538.732,0.0
52675.0,STARLINK-3934,PAYLOAD,2023-11-03 05:19:21,15.08838346,0.000158,53.2191,33.4482,91.4429,268.6744,1.8224e-05,2e-08,0.0,0 STARLINK-3934,1 52675U 22053V   23307.22177942  .00000002  00000-0  18224-4 0  9999,2 52675  53.2191  33.4482 0001580  91.4429 268.6744 15.08838346 81298,6917.885,95.438,540.843,538.657,0.0
52675.0,STARLINK-3934,PAYLOAD,2023-11-03 13:16:17,15.08842885,0.0001766,53.2189,31.9611,92.6303,267.4892,8.2512e-05,1.025e-05,0.0,0 STARLINK-3934,1 52675U 22053V   23307.55297855  .00001025  00000-0  82512-4 0  9998,2 52675  53.2189  31.9611 0001766  92.6303 267.4892 15.08842885 81779,6917.872,95.437,540.958,538.515,0.0
52675.0,STARLINK-3934,PAYLOAD,2023-11-04 11:31:41,15.08837136,0.0001365,53.2168,27.7994,89.1871,270.9278,9.6566e-05,1.249e-05,0.0,0 STARLINK-3934,1 52675U 22053V   23308.48034358  .00001249  00000-0  96566-4 0  9990,2 52675  53.2168  27.7994 0001365  89.1871 270.9278 15.08837136 81487,6917.889,95.438,540.698,538.81,0.0
52675.0,STARLINK-3934,PAYLOAD,2023-11-04 13:07:04,15.08841354,0.0001672,53.2183,27.5023,73.7688,286.3488,0.00010214,1.338e-05,0.0,0 STARLINK-3934,1 52675U 22053V   23308.54658279  .00001338  00000-0  10214-3 0  9995,2 52675  53.2183  27.5023 0001672  73.7688 286.3488 15.08841354 81921,6917.876,95.437,540.898,538.585,0.0
52675.0,STARLINK-3934,PAYLOAD,2023-11-05 11:22:28,15.08854658,0.0001597,53.216,23.3373,85.996,274.1214,0.0003821,5.801e-05,0.0,0 STARLINK-3934,1 52675U 22053V   23309.47393726  .00005801  00000-0  38210-3 0  9996,2 52675  53.2160  23.3373 0001597  85.9960 274.1214 15.08854658 81633,6917.836,95.437,540.805,538.596,0.0
52675.0,STARLINK-3934,PAYLOAD,2023-11-05 22:30:09,15.08859921,0.0001465,53.2175,21.2536,82.6128,277.503,0.00044986,6.883e-05,0.0,0 STARLINK-3934,1 52675U 22053V   23309.93761285  .00006883  00000-0  44986-3 0  9994,2 52675  53.2175  21.2536 0001465  82.6128 277.5030 15.08859921 82138,6917.819,95.436,540.698,538.671,0.0
52675.0,STARLINK-3934,PAYLOAD,2023-11-06 11:13:16,15.08751947,0.0001271,53.2169,18.878,65.4947,294.6178,-0.002874,-0.00045628,0.0,0 STARLINK-3934,1 52675U 22053V   23310.46755378 -.00045628  00000-0 -28740-2 0  9991,2 52675  53.2169  18.8780 0001271  65.4947 294.6178 15.08751947 81789,6918.15,95.443,540.894,539.135,0.0
52675.0,STARLINK-3934,PAYLOAD,2023-11-07 11:04:05,15.08813161,0.0001482,53.2178,14.4139,107.8598,252.2555,0.0011661,0.00018306,0.0,0 STARLINK-3934,1 52675U 22053V   23311.46117199  .00018306  00000-0  11661-2 0  9990,2 52675  53.2178  14.4139 0001482 107.8598 252.2555 15.08813161 81939,6917.962,95.439,540.853,538.802,0.0
52675.0,STARLINK-3934,PAYLOAD,2023-11-08 09:19:28,15.08861956,0.0001397,53.2172,10.2523,82.9604,277.1547,0.0011566,0.00018178,0.0,0 STARLINK-3934,1 52675U 22053V   23312.38852524  .00018178  00000-0  11566-2 0  9991,2 52675  53.2172  10.2523 0001397  82.9604 277.1547 15.08861956 82078,6917.813,95.436,540.645,538.712,0.0
52675.0,STARLINK-3934,PAYLOAD,2023-11-08 20:27:09,15.08866234,0.0001519,53.218,8.1717,75.6151,284.501,0.00047337,7.259e-05,0.0,0 STARLINK-3934,1 52675U 22053V   23312.85219805  .00007259  00000-0  47337-3 0  9996,2 52675  53.2180   8.1717 0001519  75.6151 284.5010 15.08866234 82576,6917.8,95.436,540.716,538.614,0.0
52675.0,STARLINK-3934,PAYLOAD,2023-11-09 09:10:14,15.08859009,0.0002265,53.2197,5.8017,128.4408,231.6787,0.00013739,1.9e-05,0.0,0 STARLINK-3934,1 52675U 22053V   23313.38211386  .00001900  00000-0  13739-3 0  9997,2 52675  53.2197   5.8017 0002265 128.4408 231.6787 15.08859009 82220,6917.822,95.436,541.254,538.12,0.0
